NORAD_CAT_ID,OBJECT_NAME,OBJECT_TYPE,EPOCH,MEAN_MOTION,ECCENTRICITY,INCLINATION,RA_OF_ASC_NODE,ARG_OF_PERICENTER,MEAN_ANOMALY,BSTAR,MEAN_MOTION_DOT,MEAN_MOTION_DDOT,TLE_LINE0,TLE_LINE1,TLE_LINE2,SEMIMAJOR_AXIS,PERIOD,APOGEE,PERIGEE,DECAYED
52458.0,STARLINK-3898,PAYLOAD,2022-07-23 14:00:01,15.08821269,0.0002303,53.2162,257.7398,43.3081,93.6219,0.003163,0.00050386,0.0,0 STARLINK-3898,1 52458U 22049H   22204.58335648  .00050386  00000-0  31630-2 0  9990,2 52458  53.2162 257.7398 0002303  43.3081  93.6219 15.08821269  1309,6917.938,95.439,541.396,538.2090000000002,0.0
52458.0,STARLINK-3898,PAYLOAD,2022-07-23 22:00:00,15.08848386,0.0002144,53.2163,256.2418,46.7199,101.7528,0.0009202,0.00014391,0.0,0 STARLINK-3898,1 52458U 22049H   22204.91667824  .00014391  00000-0  92020-3 0  9998,2 52458  53.2163 256.2418 0002144  46.7199 101.7528 15.08848386  1300,6917.855,95.437,541.203,538.237,0.0
52458.0,STARLINK-3898,PAYLOAD,2022-07-24 06:00:00,15.08872388,0.0002190999999999,53.2165,254.7457,48.4557,111.6175,-0.0012534,-0.00020199,0.0,0 STARLINK-3898,1 52458U 22049H   22205.25001157 -.00020199  00000-0 -12534-2 0  9993,2 52458  53.2165 254.7457 0002191  48.4557 111.6175 15.08872388 12339,6917.781,95.436,541.1619999999998,538.131,0.0
52458.0,STARLINK-3898,PAYLOAD,2022-07-24 14:00:01,15.08847618,0.0002311999999999,53.2163,253.2507,43.0625,128.6388,0.00038935,5.915e-05,0.0,0 STARLINK-3898,1 52458U 22049H   22205.58334491  .00005915  00000-0  38935-3 0  9990,2 52458  53.2163 253.2507 0002312  43.0625 128.6388 15.08847618  1306,6917.857,95.437,541.322,538.123,0.0
52458.0,STARLINK-3898,PAYLOAD,2022-07-24 22:00:00,15.08827049,0.0002078,53.2163,251.7527,45.489,137.828,0.0011287,0.00017715,0.0,0 STARLINK-3898,1 52458U 22049H   22205.91667824  .00017715  00000-0  11287-2 0  9997,2 52458  53.2163 251.7527 0002078  45.4890 137.8280 15.08827049  1309,6917.92,95.438,541.2230000000002,538.347,0.0
52458.0,STARLINK-3898,PAYLOAD,2022-07-25 14:00:01,15.08821554,0.0002276999999999,53.216,248.7617,42.6158,163.8915,0.0027854,0.00044299,0.0,0 STARLINK-3898,1 52458U 22049H   22206.58334491  .00044299  00000-0  27854-2 0  9996,2 52458  53.2160 248.7617 0002277  42.6158 163.8915 15.08821554  1308,6917.937,95.439,541.377,538.227,0.0
52458.0,STARLINK-3898,PAYLOAD,2022-07-25 22:00:00,15.08830387,0.0002078,53.2159,247.2636,46.7502,171.356,0.0015045,0.00023731,0.0,0 STARLINK-3898,1 52458U 22049H   22206.91667824  .00023731  00000-0  15045-2 0  9999,2 52458  53.2159 247.2636 0002078  46.7502 171.3560 15.08830387  1302,6917.91,95.438,541.212,538.337,0.0
52458.0,STARLINK-3898,PAYLOAD,2022-07-26 06:00:00,15.08861589,0.0002134999999999,53.2159,245.7681,47.8411,181.8538,-0.0017745999999999,-0.00028438,0.0,0 STARLINK-3898,1 52458U 22049H   22207.25001157 -.00028438  00000-0 -17746-2 0  9999,2 52458  53.2159 245.7681 0002135  47.8411 181.8538 15.08861589 12637,6917.814,95.436,541.156,538.202,0.0
52458.0,STARLINK-3898,PAYLOAD,2022-07-26 14:00:01,15.08830844,0.0002266,53.2153,244.2727,43.8929,197.4163,0.0022746,0.0003609,0.0,0 STARLINK-3898,1 52458U 22049H   22207.58334491  .00036090  00000-0  22746-2 0  9992,2 52458  53.2153 244.2727 0002266  43.8929 197.4163 15.08830844  1300,6917.908,95.438,541.341,538.206,0.0
52458.0,STARLINK-3898,PAYLOAD,2022-07-26 22:00:00,15.08831556,0.0002086999999999,53.2152,242.7746,48.4624,204.455,0.0019307,0.00030566,0.0,0 STARLINK-3898,1 52458U 22049H   22207.91667824  .00030566  00000-0  19307-2 0  9999,2 52458  53.2152 242.7746 0002087  48.4624 204.4550 15.08831556 12736,6917.906,95.438,541.215,538.327,0.0
52458.0,STARLINK-3898,PAYLOAD,2022-07-27 14:00:01,15.08843144,0.000222,53.2147,239.7836,43.8145,232.3134,-0.0010819,-0.00017468,0.0,0 STARLINK-3898,1 52458U 22049H   22208.58334491 -.00017468  00000-0 -10819-2 0  9991,2 52458  53.2147 239.7836 0002220  43.8145 232.3134 15.08843144  1307,6917.871,95.437,541.2719999999998,538.2,0.0
52458.0,STARLINK-3898,PAYLOAD,2022-07-27 16:00:00,15.08852242,0.0002189999999999,53.2146,239.4089,44.0836,324.9416,-0.0030329,-0.00048252,0.0,0 STARLINK-3898,1 52458U 22049H   22208.66667824 -.00048252  00000-0 -30329-2 0  9992,2 52458  53.2146 239.4089 0002190  44.0836 324.9416 15.08852242 12840,6917.843000000003,95.437,541.2230000000002,538.193,0.0
52458.0,STARLINK-3898,PAYLOAD,2022-07-27 22:00:00,15.08804447,0.0002032999999999,53.2149,238.2854,47.8436,239.8861,0.0023343,0.00037022,0.0,0 STARLINK-3898,1 52458U 22049H   22208.91667824  .00037022  00000-0  23343-2 0  9999,2 52458  53.2149 238.2854 0002033  47.8436 239.8861 15.08804447  1304,6917.989000000001,95.44,541.26,538.448,0.0
52458.0,STARLINK-3898,PAYLOAD,2022-07-28 08:00:01,15.08835347,0.0002215,53.215,236.4164,46.4471,345.7472,-0.0013644,-0.00021935,0.0,0 STARLINK-3898,1 52458U 22049H   22209.33334491 -.00021935  00000-0 -13644-2 0  9998,2 52458  53.2150 236.4164 0002215  46.4471 345.7472 15.08835347 12946,6917.895,95.438,541.2919999999998,538.227,0.0
52458.0,STARLINK-3898,PAYLOAD,2022-07-28 14:00:01,15.08820436,0.0002241,53.2147,235.2943,43.6376,267.2422,0.0011392,0.00017879,0.0,0 STARLINK-3898,1 52458U 22049H   22209.58334491  .00017879  00000-0  11392-2 0  9993,2 52458  53.2147 235.2943 0002241  43.6376 267.2422 15.08820436  1300,6917.94,95.439,541.355,538.255,0.0
52458.0,STARLINK-3898,PAYLOAD,2022-07-28 22:00:00,15.08805726,0.0002101,53.2148,233.7962,48.8019,273.6665,0.0026526,0.00042142,0.0,0 STARLINK-3898,1 52458U 22049H   22209.91667824  .00042142  00000-0  26526-2 0  9995,2 52458  53.2148 233.7962 0002101  48.8019 273.6665 15.08805726  1306,6917.985,95.44,541.304,538.3969999999998,0.0
52458.0,STARLINK-3898,PAYLOAD,2022-07-29 06:00:00,15.0884481,0.0002238,53.2148,232.3008,47.9762,286.0609,-0.0018155,-0.00029071,0.0,0 STARLINK-3898,1 52458U 22049H   22210.25001157 -.00029071  00000-0 -18155-2 0  9992,2 52458  53.2148 232.3008 0002238  47.9762 286.0609 15.08844810 13089,6917.866,95.437,541.279,538.182,0.0
52458.0,STARLINK-3898,PAYLOAD,2022-07-29 14:00:01,15.08828069,0.0002329,53.2146,230.8049,44.1841,301.4389,0.00062081,9.603e-05,0.0,0 STARLINK-3898,1 52458U 22049H   22210.58334491  .00009603  00000-0  62081-3 0  9993,2 52458  53.2146 230.8049 0002329  44.1841 301.4389 15.08828069  1300,6917.917,95.438,541.393,538.1709999999998,0.0
52458.0,STARLINK-3898,PAYLOAD,2022-07-29 22:00:00,15.08808434,0.0002189999999999,53.2149,229.3067,49.3751,307.8429,0.0028605,0.00045492,0.0,0 STARLINK-3898,1 52458U 22049H   22210.91667824  .00045492  00000-0  28605-2 0  9998,2 52458  53.2149 229.3067 0002190  49.3751 307.8429 15.08808434 13187,6917.977,95.44,541.357,538.327,0.0
52458.0,STARLINK-3898,PAYLOAD,2022-07-30 14:00:01,15.08836581,0.0002432,53.215,226.3154,45.0034,335.379,0.00016086,2.272e-05,0.0,0 STARLINK-3898,1 52458U 22049H   22211.58334491  .00002272  00000-0  16086-3 0  9993,2 52458  53.2150 226.3154 0002432  45.0034 335.3790 15.08836581 13281,6917.891,95.438,541.438,538.073,0.0
52458.0,STARLINK-3898,PAYLOAD,2022-07-30 22:00:00,15.08813977,0.0002285,53.2154,224.8173,50.2441,341.74,0.0028997,0.00046131,0.0,0 STARLINK-3898,1 52458U 22049H   22211.91667824  .00046131  00000-0  28997-2 0  9994,2 52458  53.2154 224.8173 0002285  50.2441 341.7400 15.08813977  1308,6917.96,95.439,541.406,538.244,0.0
52458.0,STARLINK-3898,PAYLOAD,2022-07-31 14:00:01,15.0884516,0.0002518,53.2156,221.8259,46.3207,8.8398,-0.00030533,-5.145e-05,0.0,0 STARLINK-3898,1 52458U 22049H   22212.58334491 -.00005145  00000-0 -30533-3 0  9991,2 52458  53.2156 221.8259 0002518  46.3207   8.8398 15.08845160  1303,6917.865,95.437,541.472,537.988,0.0
52458.0,STARLINK-3898,PAYLOAD,2022-07-31 22:00:00,15.08820576,0.0002359,53.216,220.3279,51.5619,15.2065,0.0027399,0.00043565,0.0,0 STARLINK-3898,1 52458U 22049H   22212.91667824  .00043565  00000-0  27399-2 0  9998,2 52458  53.2160 220.3279 0002359  51.5619  15.2065 15.08820576  1309,6917.94,95.439,541.437,538.173,0.0
52458.0,STARLINK-3898,PAYLOAD,2022-08-01 14:00:01,15.08853359,0.0002561,53.2162,217.3365,47.9344,42.0231,-0.00074701,-0.00012162,0.0,0 STARLINK-3898,1 52458U 22049H   22213.58334491 -.00012162  00000-0 -74701-3 0  9994,2 52458  53.2162 217.3365 0002561  47.9344  42.0231 15.08853359 13583,6917.84,95.437,541.476,537.933,0.0
52458.0,STARLINK-3898,PAYLOAD,2022-08-01 22:00:00,15.08827815,0.0002396999999999,53.2165,215.8386,53.2233,48.3471,0.0025041,0.00039778,0.0,0 STARLINK-3898,1 52458U 22049H   22213.91667824  .00039778  00000-0  25041-2 0  9992,2 52458  53.2165 215.8386 0002397  53.2233  48.3471 15.08827815  1306,6917.918000000002,95.438,541.441,538.124,0.0
52458.0,STARLINK-3898,PAYLOAD,2022-08-02 14:00:01,15.08859982,0.0002565,53.2163,212.8472,49.7445,75.0266,-0.0011611,-0.00018731,0.0,0 STARLINK-3898,1 52458U 22049H   22214.58334491 -.00018731  00000-0 -11611-2 0  9993,2 52458  53.2163 212.8472 0002565  49.7445  75.0266 15.08859982  1308,6917.819,95.436,541.4590000000002,537.91,0.0
52458.0,STARLINK-3898,PAYLOAD,2022-08-03 06:00:00,15.08809382,0.0002379999999999,53.2165,209.855,50.6484,97.2211,0.00036908,5.586e-05,0.0,0 STARLINK-3898,1 52458U 22049H   22215.25001157  .00005586  00000-0  36908-3 0  9997,2 52458  53.2165 209.8550 0002380  50.6484  97.2211 15.08809382 13849,6917.974,95.439,541.485,538.192,0.0
52458.0,STARLINK-3898,PAYLOAD,2022-08-03 14:00:01,15.08845198,0.0002346,53.2161,208.3585,48.9918,110.4298,-0.00074981,-0.00012204,0.0,0 STARLINK-3898,1 52458U 22049H   22215.58334491 -.00012204  00000-0 -74981-3 0  9993,2 52458  53.2161 208.3585 0002346  48.9918 110.4298 15.08845198  1307,6917.865,95.437,541.352,538.107,0.0
52458.0,STARLINK-3898,PAYLOAD,2022-08-03 22:00:01,15.08828251,0.00022,53.2163,206.8608,54.2179,116.8652,0.0018986,0.00030048,0.0,0 STARLINK-3898,1 52458U 22049H   22215.91668981  .00030048  00000-0  18986-2 0  9990,2 52458  53.2163 206.8608 0002200  54.2179 116.8652 15.08828251  1301,6917.916,95.438,541.303,538.259,0.0
